0 FENGYUN 1C DEB
1 30556U 99025AKW 18266.70143664 -.00000113 +00000-0 -47283-4 0  9993
2 30556 098.9612 318.8233 0063828 354.9451 123.3128 13.98624428593747
0 FENGYUN 1C DEB
1 30557U 99025AKX 18266.85898667 +.00000566 +00000-0 +39944-3 0  9994
2 30557 099.1095 318.6411 0072877 359.2957 055.4602 14.00903150593057
0 FENGYUN 1C DEB
1 30557U 99025AKX 18267.44515906 +.00000526 +00000-0 +37338-3 0  9993
2 30557 099.1095 319.2256 0072857 357.6513 131.7019 14.00903524593133
0 FENGYUN 1C DEB
1 30558U 99025AKY 18267.40360172 +.00000505 +00000-0 +79051-3 0  9998
2 30558 099.4596 248.9841 0449433 103.9840 049.9105 13.20159904559262
0 FENGYUN 1C DEB
1 30560U 99025ALA 18267.38498588 +.00000090 +00000-0 +65503-4 0  9998
2 30560 098.7663 296.9718 0120009 192.8332 299.5232 14.14045324600924
0 FENGYUN 1C DEB
1 30560U 99025ALA 18266.80380000 +.00000093 +00000-0 +66895-4 0  9991
2 30560 098.7664 296.4015 0119978 194.4932 220.9555 14.14045208600801
0 FENGYUN 1C DEB
1 30561U 99025ALB 18267.07912538 +.00000091 +00000-0 +77464-4 0  9991
2 30561 098.9029 296.7813 0062083 002.8400 066.0921 14.08533754598391
0 FENGYUN 1C DEB
1 30562U 99025ALC 18267.12216868 +.00000491 +00000-0 +29539-3 0  9994
2 30562 098.9583 321.8046 0071016 191.3596 198.2614 14.10183496597439
0 FENGYUN 1C DEB
1 30562U 99025ALC 18266.84451590 +.00000485 +00000-0 +29225-3 0  9990
2 30562 098.9584 321.5280 0070996 192.1276 228.7258 14.10183147597398
0 FENGYUN 1C DEB
1 30563U 99025ALD 18266.92238299 +.00002438 +00000-0 +44543-3 0  9999
2 30563 099.0934 255.3862 0061521 284.1633 146.8587 14.65832478614048
0 FENGYUN 1C DEB
1 30563U 99025ALD 18267.47790319 +.00002329 +00000-0 +42591-3 0  9996
2 30563 099.0935 256.0009 0061480 282.4222 198.3764 14.65834743614124
0 FENGYUN 1C DEB
1 30564U 99025ALE 18267.61688631 +.00000124 +00000-0 +93007-4 0  9996
2 30564 098.9967 309.1166 0226397 251.3359 269.4574 13.99634742593722
0 FENGYUN 1C DEB
1 30564U 99025ALE 18266.68066103 +.00000116 +00000-0 +88454-4 0  9997
2 30564 098.9969 308.1954 0226332 253.9375 232.0992 13.99634349593591
0 FENGYUN 1C DEB
1 30566U 99025ALG 18267.40906153 +.00000490 +00000-0 +34668-3 0  9990
2 30566 099.1858 229.8312 0072452 268.6398 221.4882 14.01562165593725
0 FENGYUN 1C DEB
1 30567U 99025ALH 18267.05008041 +.00000045 +00000-0 +50268-4 0  9992
2 30567 098.8616 298.0012 0113282 053.2382 000.2123 14.06264421596955
0 FENGYUN 1C DEB
1 30567U 99025ALH 18266.92105417 +.00000039 +00000-0 +46624-4 0  9996
2 30567 098.8617 297.8749 0113284 053.5991 067.0115 14.06264398596934
0 FENGYUN 1C DEB
1 30568U 99025ALJ 18266.78747156 +.00000715 +00000-0 +35500-3 0  9994
2 30568 098.9347 341.2215 0025098 267.1155 216.7202 14.20260043600191
0 FENGYUN 1C DEB
1 30568U 99025ALJ 18267.48092891 +.00000728 +00000-0 +36089-3 0  9998
2 30568 098.9346 341.9218 0025165 265.0418 162.4133 14.20261108600298
0 FENGYUN 1C DEB
1 30569U 99025ALK 18267.41295209 +.00000781 +00000-0 +32558-3 0  9996
2 30569 098.8125 318.9990 0023469 337.4836 022.5313 14.29045904603435
0 FENGYUN 1C DEB
1 30569U 99025ALK 18266.85282193 +.00000803 +00000-0 +33413-3 0  9997
2 30569 098.8125 318.4329 0023489 339.2450 020.7775 14.29045133603346
0 FENGYUN 1C DEB
1 30570U 99025ALL 18266.77963500 +.00000130 +00000-0 +97489-4 0  9995
2 30570 099.0118 294.6471 0038361 110.6330 309.8282 14.10406402597963
0 FENGYUN 1C DEB
1 30570U 99025ALL 18267.36011667 +.00000107 +00000-0 +85005-4 0  9994
2 30570 099.0117 295.2289 0038359 109.0575 017.1473 14.10406580598033
0 FENGYUN 1C DEB
1 30571U 99025ALM 18267.02459937 +.00000193 +00000-0 +13796-3 0  9996
2 30571 099.0317 293.6087 0022444 098.5484 319.5340 14.08621890597506
0 FENGYUN 1C DEB
1 30571U 99025ALM 18266.95489510 +.00000192 +00000-0 +13728-3 0  9991
2 30571 099.0317 293.5389 0022446 098.7327 326.0718 14.08621860597497
0 FENGYUN 1C DEB
1 30572U 99025ALN 18266.64935226 +.00000171 +00000-0 +12905-3 0  9991
2 30572 099.0780 290.1348 0026385 120.4147 354.6936 14.06924959596647
0 FENGYUN 1C DEB
1 30572U 99025ALN 18267.06507351 +.00000143 +00000-0 +11228-3 0  9998
2 30572 099.0779 290.5520 0026392 119.3095 300.2401 14.06925132597030
0 FENGYUN 1C DEB
1 30573U 99025ALP 18267.44093005 +.00000731 +00000-0 +49823-3 0  9992
2 30573 099.1513 226.0700 0107340 003.5379 110.9405 14.00414049591964
0 FENGYUN 1C DEB
1 30573U 99025ALP 18266.85700281 +.00000740 +00000-0 +50432-3 0  9995
2 30573 099.1513 225.4855 0107389 005.1240 047.0988 14.00413209592386
0 FENGYUN 1C DEB
1 30574U 99025ALQ 18267.57313373 +.00000797 +00000-0 +83409-3 0  9990
2 30574 099.3235 131.0868 0248548 009.3067 351.2561 13.65418579577589
0 FENGYUN 1C DEB
1 30575U 99025ALR 18267.28517079 +.00000093 +00000-0 +54901-4 0  9993
2 30575 099.1721 161.5476 0062455 311.3277 173.9658 14.29153121604814
0 FENGYUN 1C DEB
1 30575U 99025ALR 18266.71268374 +.00000088 +00000-0 +53089-4 0  9991
2 30575 099.1721 160.9454 0062497 312.9779 108.5483 14.29152935604837
0 FENGYUN 1C DEB
1 30576U 99025ALS 18266.60493852 +.00001031 +00000-0 +32629-3 0  9996
2 30576 099.0949 125.3056 0106839 348.2635 068.1999 14.39353520608666
0 FENGYUN 1C DEB
1 30576U 99025ALS 18267.17479845 +.00001037 +00000-0 +32789-3 0  9998
2 30576 099.0948 125.9100 0106808 346.6158 141.0012 14.39354733608742
0 FENGYUN 1C DEB
1 30577U 99025ALT 18266.65757979 +.00000170 +00000-0 +12733-3 0  9992
2 30577 099.0610 294.2808 0031925 129.3935 356.8665 14.07274753596632
0 FENGYUN 1C DEB
1 30578U 99025ALU 18266.84544174 +.00001151 +00000-0 +55862-3 0  9995
2 30578 099.0194 331.6343 0054839 098.6022 325.8264 14.19584680598385
0 FENGYUN 1C DEB
1 30578U 99025ALU 18267.49203793 +.00001137 +00000-0 +55217-3 0  9994
2 30578 099.0193 332.2927 0054770 096.8077 030.2108 14.19586074598476
0 FENGYUN 1C DEB
1 30579U 99025ALV 18267.32668207 +.00000070 +00000-0 +73807-4 0  9993
2 30579 099.1029 295.7479 0053560 241.3510 182.6317 14.02851960595142
0 FENGYUN 1C DEB
1 30593U 99025ALY 18267.42047765 +.00001504 +00000-0 +55105-3 0  9993
2 30593 102.3999 231.4477 0016851 015.3191 111.0718 14.35345411606488
0 FENGYUN 1C DEB
1 30593U 99025ALY 18266.84437260 +.00001528 +00000-0 +55933-3 0  9996
2 30593 102.3999 230.6230 0016852 016.5987 014.3992 14.35343787605137
0 FENGYUN 1C DEB
1 30594U 99025ALZ 18266.59258405 +.00000047 +00000-0 +40070-4 0  9993
2 30594 098.9927 020.1546 0198001 213.4261 145.4285 14.15327379602877
0 FENGYUN 1C DEB
1 30594U 99025ALZ 18267.29954119 +.00000057 +00000-0 +44302-4 0  9999
2 30594 098.9928 020.8679 0198040 211.4170 147.5050 14.15327525602700
0 FENGYUN 1C DEB
1 30596U 99025AMB 18267.38544288 +.00000102 +00000-0 +41579-4 0  9997
2 30596 098.5629 299.3255 0264897 163.0477 326.4794 14.29086934608716
0 FENGYUN 1C DEB
1 30597U 99025AMC 18267.57652964 +.00000887 +00000-0 +32526-3 0  9991
2 30597 098.9430 029.4945 0129932 064.7086 296.7492 14.30820486605410
0 FENGYUN 1C DEB
1 30597U 99025AMC 18266.87723861 +.00000898 +00000-0 +32883-3 0  9996
2 30597 098.9429 028.7751 0129994 066.7472 294.7334 14.30819299605316
0 FENGYUN 1C DEB
1 30599U 99025AME 18266.63765493 +.00000199 +00000-0 +84781-4 0  9998
2 30599 098.8613 304.6772 0329164 314.2829 043.1763 14.11066946599168
0 FENGYUN 1C DEB
1 30599U 99025AME 18267.55943427 +.00000195 +00000-0 +83540-4 0  9993
2 30599 098.8612 305.5888 0329140 311.6654 045.6765 14.11067385599297
0 FENGYUN 1C DEB
1 30602U 99025AMH 18267.23794434 +.00001018 +00000-0 +46760-3 0  9992
2 30602 099.0425 011.5440 0031047 294.6577 126.4662 14.23357413599667
0 FENGYUN 1C DEB
1 30602U 99025AMH 18266.76392089 +.00001026 +00000-0 +47090-3 0  9995
2 30602 099.0425 011.0571 0030980 296.1212 217.4263 14.23356537601225
0 FENGYUN 1C DEB
1 30603U 99025AMJ 18266.73244903 +.00000304 +00000-0 +30180-3 0  9994
2 30603 098.4663 177.8543 0194610 160.4901 256.2257 13.76604061586076
0 FENGYUN 1C DEB
1 30603U 99025AMJ 18267.32865942 +.00000293 +00000-0 +29243-3 0  9997
2 30603 098.4661 178.3854 0194661 158.8699 330.9200 13.76604348585385
0 FENGYUN 1C DEB
1 30604U 99025AMK 18267.15421855 +.00000061 +00000-0 +39478-4 0  9995
2 30604 098.7120 343.0565 0221119 089.1088 303.5182 14.19579935604025
0 FENGYUN 1C DEB
1 30604U 99025AMK 18266.68404522 +.00000059 +00000-0 +38467-4 0  9998
2 30604 098.7121 342.5936 0221136 090.4562 060.7104 14.19579817603959
0 FENGYUN 1C DEB
1 30606U 99025AMM 18266.70738257 +.00000262 +00000-0 +65363-4 0  9999
2 30606 098.3705 318.5006 0255955 272.1485 217.4471 14.42622422611577
0 FENGYUN 1C DEB
1 30606U 99025AMM 18267.10850399 +.00000271 +00000-0 +67217-4 0  9996
2 30606 098.3704 318.8949 0255958 270.9292 140.6546 14.42622692611254
0 FENGYUN 1C DEB
1 30607U 99025AMN 18267.19373736 +.00001458 +00000-0 +56823-3 0  9999
2 30607 098.9152 334.0953 0044919 264.1978 095.4082 14.30768697600547
0 FENGYUN 1C DEB
1 30607U 99025AMN 18266.63428040 +.00001463 +00000-0 +57007-3 0  9997
2 30607 098.9153 333.5218 0044833 265.8662 093.7395 14.30767132600359
0 FENGYUN 1C DEB
1 30608U 99025AMP 18266.92870642 +.00000333 +00000-0 +18404-3 0  9992
2 30608 098.9778 288.3518 0013051 212.9372 211.8500 14.18167537599898
0 FENGYUN 1C DEB
1 30608U 99025AMP 18267.51139218 +.00000318 +00000-0 +17715-3 0  9992
2 30608 098.9778 288.9411 0013059 211.1907 306.7818 14.18167845599976
0 FENGYUN 1C DEB
1 30611U 99025AMS 18267.49818123 +.00006240 +00000-0 +27648-3 0  9998
2 30611 098.6442 257.2879 0178393 043.1306 318.3737 15.08869549627725
0 FENGYUN 1C DEB
1 30611U 99025AMS 18266.90135058 +.00006552 +00000-0 +29006-3 0  9998
2 30611 098.6441 256.6158 0178439 045.0955 316.4596 15.08862827627633
0 FENGYUN 1C DEB
1 30612U 99025AMT 18266.84869535 +.00000664 +00000-0 +14616-3 0  9995
2 30612 099.1334 284.6879 0116396 180.0183 307.9499 14.57301167615596
